[{"OBJECT_NAME":"STARLINK-30088","OBJECT_ID":"2023-107F","EPOCH":"2026-03-09T02:15:08.029152","MEAN_MOTION":15.26769614,"ECCENTRICITY":0.00019413,"INCLINATION":43.0038,"RA_OF_ASC_NODE":339.6676,"ARG_OF_PERICENTER":259.6478,"MEAN_ANOMALY":100.4155,"EPHEMERIS_TYPE":0,"CLASSIFICATION_TYPE":"U","NORAD_CAT_ID":57462,"ELEMENT_SET_NO":999,"REV_AT_EPOCH":14505,"BSTAR":0.00026190877,"MEAN_MOTION_DOT":6.778e-5,"MEAN_MOTION_DDOT":0},{"OBJECT_NAME":"OBJECT D","OBJECT_ID":"2024-173D","EPOCH":"2026-03-09T23:30:29.956896","MEAN_MOTION":15.27005733,"ECCENTRICITY":0.00090093,"INCLINATION":97.3606,"RA_OF_ASC_NODE":149.3901,"ARG_OF_PERICENTER":241.6081,"MEAN_ANOMALY":118.425,"EPHEMERIS_TYPE":0,"CLASSIFICATION_TYPE":"U","NORAD_CAT_ID":61230,"ELEMENT_SET_NO":999,"REV_AT_EPOCH":8130,"BSTAR":0.00072064626,"MEAN_MOTION_DOT":0.00019078,"MEAN_MOTION_DDOT":0}]
